[
    {
        "Altitude(m)": 554142.8742525559,
        "Argument of Periapsis(deg)": 0.019868973332140504,
        "Eccentricity": 0.0,
        "Inclination(deg)": 53.0,
        "Latitude(deg)": 23.373449366173364,
        "Longitude(deg)": 158.7211526480223,
        "Mean Anomaly(deg)": 150.27487860273274,
        "RAAN(deg)": 99.97043010558403,
        "Satellite Name": "Starlink Shell 1 447",
        "Satellite Number": 447,
        "Semi-Major Axis(m)": 6931778.249405717,
        "Time(s)": 570
    },
    {
        "Altitude(m)": 554090.9571943064,
        "Argument of Periapsis(deg)": 0.02021755181165174,
        "Eccentricity": 0.0,
        "Inclination(deg)": 53.0,
        "Latitude(deg)": 22.896579921339708,
        "Longitude(deg)": 159.12496441707123,
        "Mean Anomaly(deg)": 150.90170980628952,
        "RAAN(deg)": 99.96991133550658,
        "Satellite Name": "Starlink Shell 1 447",
        "Satellite Number": 447,
        "Semi-Major Axis(m)": 6931778.249405717,
        "Time(s)": 580
    },
    {
        "Altitude(m)": 554040.8636078687,
        "Argument of Periapsis(deg)": 0.020566130291162974,
        "Eccentricity": 0.0,
        "Inclination(deg)": 53.0,
        "Latitude(deg)": 22.41844563776682,
        "Longitude(deg)": 159.5256733049555,
        "Mean Anomaly(deg)": 151.52854100984624,
        "RAAN(deg)": 99.9693925654291,
        "Satellite Name": "Starlink Shell 1 447",
        "Satellite Number": 447,
        "Semi-Major Axis(m)": 6931778.249405717,
        "Time(s)": 590
    },
    {
        "Altitude(m)": 553992.638445268,
        "Argument of Periapsis(deg)": 0.020914708770674213,
        "Eccentricity": 0.0,
        "Inclination(deg)": 53.0,
        "Latitude(deg)": 21.93908392180916,
        "Longitude(deg)": 159.9233641850425,
        "Mean Anomaly(deg)": 152.15537221340293,
        "RAAN(deg)": 99.96887379535163,
        "Satellite Name": "Starlink Shell 1 447",
        "Satellite Number": 447,
        "Semi-Major Axis(m)": 6931778.249405717,
        "Time(s)": 600
    },
    {
        "Altitude(m)": 553946.3258850724,
        "Argument of Periapsis(deg)": 0.021263287250185448,
        "Eccentricity": 0.0,
        "Inclination(deg)": 53.0,
        "Latitude(deg)": 21.458531465888196,
        "Longitude(deg)": 160.31812075886037,
        "Mean Anomaly(deg)": 152.7822034169596,
        "RAAN(deg)": 99.96835502527415,
        "Satellite Name": "Starlink Shell 1 447",
        "Satellite Number": 447,
        "Semi-Major Axis(m)": 6931778.249405717,
        "Time(s)": 610
    },
    {
        "Altitude(m)": 553901.9693081557,
        "Argument of Periapsis(deg)": 0.021611865729696686,
        "Eccentricity": 0.0,
        "Inclination(deg)": 53.0,
        "Latitude(deg)": 20.97682427202873,
        "Longitude(deg)": 160.71002608210384,
        "Mean Anomaly(deg)": 153.4090346205163,
        "RAAN(deg)": 99.96783625519667,
        "Satellite Name": "Starlink Shell 1 447",
        "Satellite Number": 447,
        "Semi-Major Axis(m)": 6931778.249405717,
        "Time(s)": 620
    },
    {
        "Altitude(m)": 553859.6112737939,
        "Argument of Periapsis(deg)": 0.02196044420920792,
        "Eccentricity": 0.0,
        "Inclination(deg)": 53.0,
        "Latitude(deg)": 20.493997674886455,
        "Longitude(deg)": 161.09916141047987,
        "Mean Anomaly(deg)": 154.03586582407306,
        "RAAN(deg)": 99.9673174851192,
        "Satellite Name": "Starlink Shell 1 447",
        "Satellite Number": 447,
        "Semi-Major Axis(m)": 6931778.249405717,
        "Time(s)": 630
    },
    {
        "Altitude(m)": 553819.2934961775,
        "Argument of Periapsis(deg)": 0.02230902268871916,
        "Eccentricity": 0.0,
        "Inclination(deg)": 53.0,
        "Latitude(deg)": 20.010086364266893,
        "Longitude(deg)": 161.48560756772864,
        "Mean Anomaly(deg)": 154.66269702762978,
        "RAAN(deg)": 99.96679871504175,
        "Satellite Name": "Starlink Shell 1 447",
        "Satellite Number": 447,
        "Semi-Major Axis(m)": 6931778.249405717,
        "Time(s)": 640
    },
    {
        "Altitude(m)": 553781.0568212726,
        "Argument of Periapsis(deg)": 0.022657601168230398,
        "Eccentricity": 0.0,
        "Inclination(deg)": 53.0,
        "Latitude(deg)": 19.525124407151303,
        "Longitude(deg)": 161.869443792822,
        "Mean Anomaly(deg)": 155.28952823118647,
        "RAAN(deg)": 99.96627994496427,
        "Satellite Name": "Starlink Shell 1 447",
        "Satellite Number": 447,
        "Semi-Major Axis(m)": 6931778.249405717,
        "Time(s)": 650
    },
    {
        "Altitude(m)": 553744.9412041289,
        "Argument of Periapsis(deg)": 0.023006179647741636,
        "Eccentricity": 0.0,
        "Inclination(deg)": 53.0,
        "Latitude(deg)": 19.039145269232378,
        "Longitude(deg)": 162.2507482686894,
        "Mean Anomaly(deg)": 155.9163594347432,
        "RAAN(deg)": 99.9657611748868,
        "Satellite Name": "Starlink Shell 1 447",
        "Satellite Number": 447,
        "Semi-Major Axis(m)": 6931778.249405717,
        "Time(s)": 660
    },
    {
        "Altitude(m)": 553710.9856865581,
        "Argument of Periapsis(deg)": 0.023354758127252868,
        "Eccentricity": 0.0,
        "Inclination(deg)": 53.0,
        "Latitude(deg)": 18.552181835971968,
        "Longitude(deg)": 162.62959865142673,
        "Mean Anomaly(deg)": 156.54319063829993,
        "RAAN(deg)": 99.96524240480932,
        "Satellite Name": "Starlink Shell 1 447",
        "Satellite Number": 447,
        "Semi-Major Axis(m)": 6931778.249405717,
        "Time(s)": 670
    },
    {
        "Altitude(m)": 553679.2283752775,
        "Argument of Periapsis(deg)": 0.023703336606764106,
        "Eccentricity": 0.0,
        "Inclination(deg)": 53.0,
        "Latitude(deg)": 18.06426643319234,
        "Longitude(deg)": 163.0060710870515,
        "Mean Anomaly(deg)": 157.17002184185665,
        "RAAN(deg)": 99.96472363473184,
        "Satellite Name": "Starlink Shell 1 447",
        "Satellite Number": 447,
        "Semi-Major Axis(m)": 6931778.249405717,
        "Time(s)": 680
    },
    {
        "Altitude(m)": 553649.7064204516,
        "Argument of Periapsis(deg)": 0.024051915086275345,
        "Eccentricity": 0.0,
        "Inclination(deg)": 53.0,
        "Latitude(deg)": 17.575430847207524,
        "Longitude(deg)": 163.38024074148979,
        "Mean Anomaly(deg)": 157.7968530454134,
        "RAAN(deg)": 99.96420486465436,
        "Satellite Name": "Starlink Shell 1 447",
        "Satellite Number": 447,
        "Semi-Major Axis(m)": 6931778.249405717,
        "Time(s)": 690
    },
    {
        "Altitude(m)": 553622.4559947471,
        "Argument of Periapsis(deg)": 0.024400493565786583,
        "Eccentricity": 0.0,
        "Inclination(deg)": 53.0,
        "Latitude(deg)": 17.085706344507948,
        "Longitude(deg)": 163.75218233086682,
        "Mean Anomaly(deg)": 158.42368424897006,
        "RAAN(deg)": 99.96368609457691,
        "Satellite Name": "Starlink Shell 1 447",
        "Satellite Number": 447,
        "Semi-Major Axis(m)": 6931778.249405717,
        "Time(s)": 700
    },
    {
        "Altitude(m)": 553597.5122727765,
        "Argument of Periapsis(deg)": 0.024749072045297815,
        "Eccentricity": 0.0,
        "Inclination(deg)": 53.0,
        "Latitude(deg)": 16.595123691011594,
        "Longitude(deg)": 164.12196913917893,
        "Mean Anomaly(deg)": 159.05051545252678,
        "RAAN(deg)": 99.96316732449944,
        "Satellite Name": "Starlink Shell 1 447",
        "Satellite Number": 447,
        "Semi-Major Axis(m)": 6931778.249405717,
        "Time(s)": 710
    },
    {
        "Altitude(m)": 553574.9094110674,
        "Argument of Periapsis(deg)": 0.025097650524809053,
        "Eccentricity": 0.0,
        "Inclination(deg)": 53.0,
        "Latitude(deg)": 16.103713170889257,
        "Longitude(deg)": 164.48967354904786,
        "Mean Anomaly(deg)": 159.67734665608344,
        "RAAN(deg)": 99.96264855442196,
        "Satellite Name": "Starlink Shell 1 447",
        "Satellite Number": 447,
        "Semi-Major Axis(m)": 6931778.249405717,
        "Time(s)": 720
    },
    {
        "Altitude(m)": 553554.6805285006,
        "Argument of Periapsis(deg)": 0.02544622900432029,
        "Eccentricity": 0.0,
        "Inclination(deg)": 53.0,
        "Latitude(deg)": 15.611504604976844,
        "Longitude(deg)": 164.8553675726434,
        "Mean Anomaly(deg)": 160.3041778596402,
        "RAAN(deg)": 99.96212978434448,
        "Satellite Name": "Starlink Shell 1 447",
        "Satellite Number": 447,
        "Semi-Major Axis(m)": 6931778.249405717,
        "Time(s)": 730
    },
    {
        "Altitude(m)": 553536.8576872437,
        "Argument of Periapsis(deg)": 0.02579480748383153,
        "Eccentricity": 0.0,
        "Inclination(deg)": 53.0,
        "Latitude(deg)": 15.118527368791229,
        "Longitude(deg)": 165.2191218698639,
        "Mean Anomaly(deg)": 160.93100906319694,
        "RAAN(deg)": 99.961611014267,
        "Satellite Name": "Starlink Shell 1 447",
        "Satellite Number": 447,
        "Semi-Major Axis(m)": 6931778.249405717,
        "Time(s)": 740
    },
    {
        "Altitude(m)": 553521.471874192,
        "Argument of Periapsis(deg)": 0.026143385963342765,
        "Eccentricity": 0.0,
        "Inclination(deg)": 53.0,
        "Latitude(deg)": 14.624810410154518,
        "Longitude(deg)": 165.58100627948863,
        "Mean Anomaly(deg)": 161.55784026675363,
        "RAAN(deg)": 99.96109224418953,
        "Satellite Name": "Starlink Shell 1 447",
        "Satellite Number": 447,
        "Semi-Major Axis(m)": 6931778.249405717,
        "Time(s)": 750
    }
]